! Orbits computed with differential corrections
format  = 'OEF2.0'       ! file format
rectype = 'ML'           ! record type (1L/ML)
refsys  = ECLM J2000     ! default reference system
END_OF_HEADER
2015AB
! Equinoctial elements: a, e*sin(LP), e*cos(LP), tan(i/2)*sin(LN), tan(i/2)*cos(LN), mean long.
 EQU   1.8017150274552707E+00   0.269386851221066   0.088597186537322    0.000821630528515    0.101671038102696  97.0385774280482
 MJD     57049.242334574 TDT
! Non-grav parameters: model used, actual number in use, dimension
 LSP   0  0    6
! RMS    4.35154E-07   5.32135E-07   2.72762E-06   1.54291E-07   2.30121E-07   2.62749E-04
! EIG   2.16639E-08   3.74185E-08   6.34277E-08   1.48687E-07   5.69332E-07   5.35414E-06
! WEA   0.07932  -0.01431   0.50935  -0.00657   0.02173  -0.85648
 COV   1.893593098989838E-13  1.604075159674243E-14  1.154445350115833E-12
 COV  -8.853935026430840E-15  3.302408663427232E-14 -1.117276867918313E-10
 COV   2.831679661425648E-13 -2.295736360556188E-13  3.379334665032077E-14
 COV  -1.013668126741257E-13  1.926665307375766E-11  7.439898186023357E-12
 COV  -9.727028363115880E-14  3.236191877108777E-13 -7.164293343295341E-10
 COV   2.380569523172927E-14 -2.251040747307608E-14  9.166942529930138E-12
 COV   5.295571431468508E-14 -3.028651739711827E-11  6.903678937065667E-08
 NOR   2.044027092036141E+15 -3.476548967743701E+14  1.265776307046122E+13
 NOR  -8.708282249311095E+13 -3.388642206311363E+13  3.533086366422458E+12
 NOR   8.658157613428484E+13  5.977611556797280E+13  2.875872950549652E+13
 NOR   6.201058175460039E+13  5.691172858817502E+10  5.222709064153738E+14
 NOR  -2.940980452243422E+13  8.690069462158550E+12  5.431387062984157E+12
 NOR   9.188979525172602E+13  8.199416456651105E+13 -4.303897169736506E+11
 NOR   1.929665155826026E+14  9.180149827907877E+10  6.217812026098624E+10
